{
  "type": "FeatureCollection",
  "features": [
    {
      "type": "Feature",
      "properties": {
        "norad_id": 33860,
        "name": "IRIDIUM 33 DEB",
        "group": "iridium-33-debris",
        "lat": -36.56431111592843,
        "lon": 20.81915476781926,
        "alt_km": 671.1066065541418,
        "timestamp": "2025-12-21T03:56:51.217934+00:00",
        "meta_object_name": "IRIDIUM 33 DEB",
        "meta_object_id": "1997-051AD",
        "meta_epoch": "2025-12-20T20:29:23.154144",
        "meta_mean_motion": 14.67455814,
        "meta_eccentricity": 0.0006442,
        "meta_inclination": 86.3823,
        "meta_ra_of_asc_node": 23.6463,
        "meta_arg_of_pericenter": 327.0708,
        "meta_mean_anomaly": 155.8571,
        "meta_ephemeris_type": 0,
        "meta_classification_type": "U",
        "meta_norad_cat_id": 33860,
        "meta_element_set_no": 999,
        "meta_rev_at_epoch": 88841,
        "meta_bstar": 0.00066996,
        "meta_mean_motion_dot": 3.814e-05,
        "meta_mean_motion_ddot": 0,
        "tle_line1": "1 33860U 97051AD  25354.85374021  .00003814  00000+0  66996-3 0  9995",
        "tle_line2": "2 33860  86.3823  23.6463 0006442 327.0708 155.8571 14.67455814888415"
      },
      "geometry": {
        "type": "Point",
        "coordinates": [
          20.81915476781926,
          -36.56431111592843
        ]
      }
    },
    {
      "type": "Feature",
      "properties": {
        "norad_id": 33862,
        "name": "IRIDIUM 33 DEB",
        "group": "iridium-33-debris",
        "lat": 63.00212763825005,
        "lon": 40.89764421188405,
        "alt_km": 621.9894043294807,
        "timestamp": "2025-12-21T03:56:51.217944+00:00",
        "meta_object_name": "IRIDIUM 33 DEB",
        "meta_object_id": "1997-051AF",
        "meta_epoch": "2025-12-20T13:30:03.805056",
        "meta_mean_motion": 14.69587199,
        "meta_eccentricity": 0.0052676,
        "meta_inclination": 86.4079,
        "meta_ra_of_asc_node": 34.0806,
        "meta_arg_of_pericenter": 42.9982,
        "meta_mean_anomaly": 77.561,
        "meta_ephemeris_type": 0,
        "meta_classification_type": "U",
        "meta_norad_cat_id": 33862,
        "meta_element_set_no": 999,
        "meta_rev_at_epoch": 88938,
        "meta_bstar": 0.00081002,
        "meta_mean_motion_dot": 4.938e-05,
        "meta_mean_motion_ddot": 0,
        "tle_line1": "1 33862U 97051AF  25354.56254404  .00004938  00000+0  81002-3 0  9990",
        "tle_line2": "2 33862  86.4079  34.0806 0052676  42.9982  77.5610 14.69587199889380"
      },
      "geometry": {
        "type": "Point",
        "coordinates": [
          40.89764421188405,
          63.00212763825005
        ]
      }
    },
    {
      "type": "Feature",
      "properties": {
        "norad_id": 33866,
        "name": "IRIDIUM 33 DEB",
        "group": "iridium-33-debris",
        "lat": -49.373599926187474,
        "lon": -86.2027849999278,
        "alt_km": 820.3623973545336,
        "timestamp": "2025-12-21T03:56:51.217954+00:00",
        "meta_object_name": "IRIDIUM 33 DEB",
        "meta_object_id": "1997-051AK",
        "meta_epoch": "2025-12-20T19:02:31.124256",
        "meta_mean_motion": 14.25296873,
        "meta_eccentricity": 0.0115004,
        "meta_inclination": 86.3001,
        "meta_ra_of_asc_node": 89.6286,
        "meta_arg_of_pericenter": 135.8612,
        "meta_mean_anomaly": 349.482,
        "meta_ephemeris_type": 0,
        "meta_classification_type": "U",
        "meta_norad_cat_id": 33866,
        "meta_element_set_no": 999,
        "meta_rev_at_epoch": 86925,
        "meta_bstar": 0.000375,
        "meta_mean_motion_dot": 9.66e-06,
        "meta_mean_motion_ddot": 0,
        "tle_line1": "1 33866U 97051AK  25354.79341579  .00000966  00000+0  37500-3 0  9990",
        "tle_line2": "2 33866  86.3001  89.6286 0115004 135.8612 349.4820 14.25296873869259"
      },
      "geometry": {
        "type": "Point",
        "coordinates": [
          -86.2027849999278,
          -49.373599926187474
        ]
      }
    },
    {
      "type": "Feature",
      "properties": {
        "norad_id": 33867,
        "name": "IRIDIUM 33 DEB",
        "group": "iridium-33-debris",
        "lat": 21.168375929615223,
        "lon": 164.26254659767804,
        "alt_km": 307.8976305785345,
        "timestamp": "2025-12-21T03:56:51.217965+00:00",
        "meta_object_name": "IRIDIUM 33 DEB",
        "meta_object_id": "1997-051AL",
        "meta_epoch": "2025-12-20T00:00:24.546240",
        "meta_mean_motion": 15.83320916,
        "meta_eccentricity": 0.00135723,
        "meta_inclination": 86.3644,
        "meta_ra_of_asc_node": 346.2932,
        "meta_arg_of_pericenter": 95.1198,
        "meta_mean_anomaly": 265.1629,
        "meta_ephemeris_type": 0,
        "meta_classification_type": "U",
        "meta_norad_cat_id": 33867,
        "meta_element_set_no": 999,
        "meta_rev_at_epoch": 89625,
        "meta_bstar": 0.0064207293,
        "meta_mean_motion_dot": 0.01574163,
        "meta_mean_motion_ddot": 0,
        "tle_line1": "1 33867U 97051AL  25354.00028410  .01574163  00000+0  64207-2 0  9990",
        "tle_line2": "2 33867  86.3644 346.2932 0013572  95.1198 265.1629 15.83320916896259"
      },
      "geometry": {
        "type": "Point",
        "coordinates": [
          164.26254659767804,
          21.168375929615223
        ]
      }
    },
    {
      "type": "Feature",
      "properties": {
        "norad_id": 33870,
        "name": "IRIDIUM 33 DEB",
        "group": "iridium-33-debris",
        "lat": -50.44429726100645,
        "lon": -120.94722699236418,
        "alt_km": 743.1507408033976,
        "timestamp": "2025-12-21T03:56:51.217974+00:00",
        "meta_object_name": "IRIDIUM 33 DEB",
        "meta_object_id": "1997-051AP",
        "meta_epoch": "2025-12-20T15:47:58.553376",
        "meta_mean_motion": 14.45887676,
        "meta_eccentricity": 0.0022292,
        "meta_inclination": 86.3742,
        "meta_ra_of_asc_node": 54.8669,
        "meta_arg_of_pericenter": 152.7966,
        "meta_mean_anomaly": 324.4467,
        "meta_ephemeris_type": 0,
        "meta_classification_type": "U",
        "meta_norad_cat_id": 33870,
        "meta_element_set_no": 999,
        "meta_rev_at_epoch": 88251,
        "meta_bstar": 0.00045247,
        "meta_mean_motion_dot": 1.632e-05,
        "meta_mean_motion_ddot": 0,
        "tle_line1": "1 33870U 97051AP  25354.65831659  .00001632  00000+0  45247-3 0  9991",
        "tle_line2": "2 33870  86.3742  54.8669 0022292 152.7966 324.4467 14.45887676882514"
      },
      "geometry": {
        "type": "Point",
        "coordinates": [
          -120.94722699236418,
          -50.44429726100645
        ]
      }
    },
    {
      "type": "Feature",
      "properties": {
        "norad_id": 33881,
        "name": "IRIDIUM 33 DEB",
        "group": "iridium-33-debris",
        "lat": 63.881424121276766,
        "lon": 110.48612835595185,
        "alt_km": 692.3260479395622,
        "timestamp": "2025-12-21T03:56:51.217984+00:00",
        "meta_object_name": "IRIDIUM 33 DEB",
        "meta_object_id": "1997-051BA",
        "meta_epoch": "2025-12-20T18:27:12.976416",
        "meta_mean_motion": 14.56702482,
        "meta_eccentricity": 0.0061363,
        "meta_inclination": 86.3866,
        "meta_ra_of_asc_node": 103.253,
        "meta_arg_of_pericenter": 148.7613,
        "meta_mean_anomaly": 2.955,
        "meta_ephemeris_type": 0,
        "meta_classification_type": "U",
        "meta_norad_cat_id": 33881,
        "meta_element_set_no": 999,
        "meta_rev_at_epoch": 87617,
        "meta_bstar": 0.0011798,
        "meta_mean_motion_dot": 5.428e-05,
        "meta_mean_motion_ddot": 0,
        "tle_line1": "1 33881U 97051BA  25354.76890019  .00005428  00000+0  11798-2 0  9990",
        "tle_line2": "2 33881  86.3866 103.2530 0061363 148.7613   2.9550 14.56702482876174"
      },
      "geometry": {
        "type": "Point",
        "coordinates": [
          110.48612835595185,
          63.881424121276766
        ]
      }
    },
    {
      "type": "Feature",
      "properties": {
        "norad_id": 33884,
        "name": "IRIDIUM 33 DEB",
        "group": "iridium-33-debris",
        "lat": -76.2643346910008,
        "lon": -9.041266506305519,
        "alt_km": 638.0748348324032,
        "timestamp": "2025-12-21T03:56:51.217993+00:00",
        "meta_object_name": "IRIDIUM 33 DEB",
        "meta_object_id": "1997-051BD",
        "meta_epoch": "2025-12-20T19:06:20.176704",
        "meta_mean_motion": 14.77573333,
        "meta_eccentricity": 0.0009102,
        "meta_inclination": 86.3692,
        "meta_ra_of_asc_node": 6.1816,
        "meta_arg_of_pericenter": 292.2796,
        "meta_mean_anomaly": 192.6098,
        "meta_ephemeris_type": 0,
        "meta_classification_type": "U",
        "meta_norad_cat_id": 33884,
        "meta_element_set_no": 999,
        "meta_rev_at_epoch": 88966,
        "meta_bstar": 0.00096382,
        "meta_mean_motion_dot": 6.912e-05,
        "meta_mean_motion_ddot": 0,
        "tle_line1": "1 33884U 97051BD  25354.79606686  .00006912  00000+0  96382-3 0  9993",
        "tle_line2": "2 33884  86.3692   6.1816 0009102 292.2796 192.6098 14.77573333889668"
      },
      "geometry": {
        "type": "Point",
        "coordinates": [
          -9.041266506305519,
          -76.2643346910008
        ]
      }
    }
  ]
}